K03H56Y  7.0   0.15 K14C9 298.47616  241.40717   35.63816    2.57296  0.0347767  0.00352881  42.7284326  4 MPO121795    18   4 2003-2007 0.28 M-v 38h MPCM       0410          2003 HY56          20070712
K03H56Z  7.5   0.15 K14C9  42.10099  111.50179   57.10888    2.54765  0.0081055  0.00340695  43.7413589  3 MPO264929    17   4 2003-2013 0.21 M-v 38h MPCADO     0410          2003 HZ56          20130514
K03H57A  8.1   0.15 K14C9  13.07961    3.18378  199.68703   27.61042  0.1738667  0.00396468  39.5364155  3 MPO264929    15   4 2003-2013 0.33 M-v 38h MPCADO     040E          2003 HA57          20130514
K03H57B  7.4   0.15 K14C9   1.02818   10.67377  197.84846   15.48792  0.7653508  0.00047661 162.3161645  2 MPO140115    18   4 2003-2008 0.19 M-v 38h MPCW       0411          2003 HB57          20080503
K03H57C  6.1   0.15 K14C9 302.66439   42.43253  233.87429    1.04325  0.0659457  0.00335959  44.1514355  3 MPO137990    22   4 2003-2008 0.25 M-v 38h MPCM       0410          2003 HC57          20080404
K03H57D  7.9   0.15 K14C9  34.14463  137.87523   34.37783    5.61292  0.1801226  0.00396683  39.5221441  3 MPO273877    20   4 2003-2013 0.25 M-v 38h MPCADO     040E          2003 HD57          20130514
K03H57E  7.3   0.15 K14C9  33.12956  166.22902    9.95090    8.85028  0.1055386  0.00333670  44.3531387  4 MPO121795    15   4 2003-2007 0.17 M-v 38h MPCM       0410          2003 HE57          20070712
K03H57F  8.7   0.15 K14C9  35.50912  123.07888   48.14731    1.42033  0.1965201  0.00397257  39.4840613  3 MPO140115    19   3 2003-2008 0.17 M-v 38h MPCW       000E          2003 HF57          20080505
K03H57G  6.5   0.15 K14C9 319.09553  221.39456   36.30986    2.09492  0.0328449  0.00340689  43.7418493  3 MPO260741    19   5 2003-2013 0.25 M-v 38h MPCADO     0410          2003 HG57          20130313
K03H57H  7.4   0.15 K14C9  19.79529  151.17976   39.15148    1.43083  0.0898225  0.00335927  44.1542661  3 MPO273877    19   4 2003-2013 0.34 M-v 38h MPCADO     0410          2003 HH57          20130514
K03K20O  6.4   0.15 K14C9 224.00817  137.85046  228.69488    1.78832  0.0403839  0.00337836  43.9877670  5 MPO158451    10   3 2003-2005 0.15 M-v 38h MPCW       0010          2003 KO20          20050311
K03L07A  6.5   0.15 K14C9 345.31046  271.73259   34.09785    5.63843  0.5261120  0.00149131  75.8735023  2 MPO157383    18   5 2003-2008 0.24 M-v 38h MPCM       0411          2003 LA7           20080312
K03L09D  6.9   0.15 K14C9  43.02950  328.96853  237.42254    6.97582  0.1735703  0.00304038  47.1901127  4 MPO157383    13   4 2003-2006 0.31 M-v 38h MPCM       0410          2003 LD9           20060603
K03Q90V  7.0   0.15 K14C9 284.08916  310.37230  138.12827    2.41074  0.0558495  0.00340504  43.7577275  4 MPO285662    20   4 2003-2013 0.57 M-v 38h MPCADO     0010          2003 QV90          20131006
K03Q90X  6.8   0.15 K14C9 173.06170   93.56173   61.32087    3.20096  0.0262403  0.00342467  43.5903343  4 MPO285662    15   4 2003-2013 0.26 M-v 38h MPCADO     0010          2003 QX90          20131006
K03Q90Y  6.4   0.15 K14C9 194.41906   40.32512  104.23136    3.77081  0.0558992  0.00354516  42.5969966  3 MPO224596    44   7 2000-2008 0.28 M-v 38h MPCS       0010          2003 QY90          20081002
K03Q91A  5.5   0.15 K14C9 268.37477  333.94792  104.72613    2.41589  0.0698493  0.00335173  44.2204504  3 MPO175200    31   5 2003-2009 0.26 M-v 38h MPCM       0010          2003 QA91          20090919
K03Q91B  6.2   0.15 K14C9 144.97813   79.80824  136.89955    6.50410  0.1952168  0.00402148  39.1632658  4 MPO186912    14   4 2003-2010 0.27 M-v 38h MPCM       000E          2003 QB91          20101008
K03Q91D  7.3   0.15 K14C9  40.39058  226.68554   80.81838    2.22346  0.0292306  0.00348308  43.1016571  3 MPO303305    12   3 2003-2014 0.16 M-v 38h MPCADO     0010          2003 QD91          20140729
K03Q91E  7.1   0.15 K14C9  46.15691  286.97434   13.82159    3.47773  0.0453306  0.00351579  42.8338426  4 MPO108726    14   3 2003-2006 0.30 M-v 38h MPCM       0010          2003 QE91          20061020
K03Q91F  7.2   0.15 K14C9  64.31796  230.13735   60.14902    2.18068  0.0361191  0.00351555  42.8358514  5 MPO 72816    11   2 2003-2004 0.16 M-v 38h MPCM       0010          2003 QF91          20041012
K03Q91G  7.3   0.15 K14C9 293.83100    1.94805   30.91471    2.20841  0.0157902  0.00357057  42.3946740  4 MPO285662    15   5 2003-2013 0.40 M-v 38h MPCADO     0010          2003 QG91          20131007
K03Q91J  6.5   0.15 K14C9 268.11881  344.26531   83.80571    2.48637  0.0525744  0.00335899  44.1567701  4 MPO108726    12   2 2003-2006 0.11 M-v 38h MPCM       0010          2003 QJ91          20061020
K03Q91K  6.9   0.15 K14C9 354.84915   69.38915  276.11758    4.01175  0.4279781  0.00178797  67.2299014  3 MPO157384    18   6 2003-2008 0.47 M-v 38h MPCM       0011          2003 QK91          20080607
K03Q91L  6.7   0.15 K14C9 321.26135  220.55729  164.60487    1.53992  0.0069695  0.00351026  42.8788868  3 MPO303305    18   3 2003-2014 0.17 M-v 38h MPCADO     0010          2003 QL91          20140729
K03Q91N  7.3   0.15 K14C9  25.08974  304.81334   18.79945    4.33612  0.1053705  0.00357028  42.3969303  3 MPO303305    15   3 2003-2014 0.31 M-v 38h MPCADO     0010          2003 QN91          20140729
K03Q91O  6.9   0.15 K14C9  22.31733  186.07465  141.11321    7.12708  0.1287459  0.00324722  45.1642907  4 MPO162374    13   4 2003-2009 0.37 M-v 38h MPCM       0010          2003 QO91          20090918
K03Q91Q  8.1   0.15 K14C9 278.40490   47.01133   58.25814    5.40569  0.0734795  0.00409140  38.7157864  4 MPO157384    21   4 2003-2006 0.30 M-v 38h MPCM       000A          2003 QQ91          20060920
K03Q91R  6.5   0.15 K14C9  31.40919   12.52637  273.27927    3.49756  0.1795994  0.00312340  46.3501060  3 MPO159703    17   4 2003-2009 0.20 M-v 38h MPCW       0010          2003 QR91          20090727
K03Q91S  7.7   0.15 K14C9 351.44973  163.59506  195.83259    3.81705  0.1390794  0.00316075  45.9842495  3 MPO303305    13   3 2003-2014 0.21 M-v 38h MPCADO     0010          2003 QS91          20140729
K03Q91T  6.7   0.15 K14C9  43.27289  167.52165  145.25434    0.18789  0.0853214  0.00336571  44.0979028  6 MPO 69549     9   2 2003-2004 0.10 M-v 38h MPCM       0010          2003 QT91          20040823
K03Q91X  8.3   0.15 K14C9  25.54621  331.96827  351.95851   27.72516  0.2485574  0.00342922  43.5518120  3 MPO103511    11   3 2003-2006 0.09 M-v 38h MPCW       0010          2003 QX91          20060728
K03Q92A  6.7   0.15 K14C9 297.90973  300.49066  109.82320    3.43297  0.0587611  0.00419285  38.0887162  3 MPO237323    31   6 2003-2012 0.30 M-v 38h MPCADO     040A          2003 QA92          20120816
K03Q92B  7.9   0.15 K14C9 156.63338   61.86228  120.13157    3.49554  0.0957662  0.00480720  34.7702602  4 MPO157384    17   3 2003-2006 0.21 M-v 38h MPCM       000A          2003 QB92          20060804
K03QB1X  6.8   0.15 K14C9 100.14060   99.61757  157.56594    9.54820  0.1323781  0.00401410  39.2112462  3 MPO186913    18   4 2003-2010 0.28 M-v 38h MPCM       000E          2003 QX111         20101009
K03QB1Y  6.9   0.15 K14C9  53.56598  218.10054   95.98511    2.94875  0.0338372  0.00346944  43.2145154  3 MPO285662    15   4 2003-2013 0.19 M-v 38h MPCADO     0010          2003 QY111         20131006
K03QB1Z  6.9   0.15 K14C9  12.45157   17.92405  326.12942    2.66621  0.0574791  0.00351210  42.8638492  4 MPO160787    14   3 2003-2009 0.32 M-v 38h MPCW       0010          2003 QZ111         20090820
K03QB2A  6.0   0.15 K14C9 166.34603  183.76286    0.67636   16.04785  0.1206496  0.00355134  42.5475431  5 MPO161880    14   3 2003-2009 0.24 M-v 38h MPCM       0010          2003 QA112         20090918
K03QB2B  7.0   0.15 K14C9  35.06693  318.54658   13.70056   11.36045  0.1054145  0.00338074  43.9671360  3 MPO157384    16   3 2003-2008 0.18 M-v 38h MPCM       0010          2003 QB112         20080920
K03QB2C  8.7   0.15 K14C9 273.57804  328.73208  158.15740   16.71071  0.2126263  0.00949277  22.0905902  8 MPO 57933     8   1   60 days 0.16 M-v 38h MPCM       200A          2003 QC112         20031023
K03QB2D 11.0   0.15 K14C9  71.93514  273.97158    0.68466   14.51270  0.5809323  0.01189449  19.0066426  2 MPO252002    15   4 2002-2007 0.34 M-v 38h MPCADO     040A          2003 QD112         20071111
K03QB2E  6.6   0.15 K14C9 207.97269   41.41140   94.43706    4.22915  0.0468051  0.00350991  42.8817232  4 MPO285662    13   3 2003-2013 0.20 M-v 38h MPCADO     0010          2003 QE112         20131007
K03QB3W  7.7   0.15 K14C9 336.16205  254.36666  160.31511    6.93576  0.4837573  0.00271732  50.8598561  2 MPO157385    19   5 2003-2008 0.24 M-v 38h MPCM       0411          2003 QW113         20080608
K03QB3X  4.7   0.15 K14C9 136.26097   24.71998  158.07050    6.76924  0.2557815  0.00283566  49.4348271  4 MPO206068    23   6 2003-2008 0.21 M-v 38h MPCW       0411          2003 QX113         20080505
K03SV7N  6.4   0.15 K14C9  69.37571   85.94653  215.49463    1.49630  0.0398559  0.00356889  42.4079239  2 MPO224598    21   7 2000-2008 0.16 M-v 38h MPCS       0410          2003 SN317         20081130
K03SV7O  8.4   0.15 K14C9  54.21182  111.94988  187.33087    6.57143  0.2730003  0.00400622  39.2626177  3 MPO100585    28   3 2003-2005 0.39 M-v 38h MPCM       000E          2003 SO317         20050710
K03SV7Q  6.1   0.15 K14C9   1.27691  194.27181  176.33689   28.61451  0.0783347  0.00354790  42.5750704  3 MPO254726    30   5 2003-2012 0.21 M-v 38h MPCADO     0410          2003 SQ317         20121020
K03SV7R  7.4   0.15 K14C9  62.19182  118.06637  175.67934    8.35883  0.1645096  0.00399141  39.3597135  3 MPO157388    20   4 2003-2008 0.22 M-v 38h MPCM       040E          2003 SR317         20080922
K03Sg2R  7.1   0.15 K14C9 244.71963   65.91202   99.93717   23.89016  0.0549237  0.00387839  40.1207111  4 MPO137996    20   3 2003-2007 0.09 M-v 38h MPCW       000E          2003 SR422         20071109
